STARLINK-36050          
1 66602U 25270Q   25349.91668981  .00068189  00000+0  16272-2 0  9998
2 66602  42.9996 174.3800 0001767 264.1735 147.3104 15.40659907  4812
STARLINK-36048          
1 66603U 25270R   25349.91668981 -.02029197  00000+0 -47799-1 0  9996
2 66603  42.9994 174.1242 0001124 286.1135 231.1016 15.44642912  4810
STARLINK-35977          
1 66604U 25270S   25349.24157352  .00049491  00000+0  84363-3 0  9993
2 66604  42.9989 178.0309 0001447 284.8784  75.1916 15.50594552  4734
STARLINK-36052          
1 66605U 25270T   25349.88537378  .00060057  00000+0  10205-2 0  9998
2 66605  42.9952 174.2621 0002156 258.8815 101.1803 15.50609370  4835
STARLINK-36063          
1 66606U 25270U   25349.88468883  .00064806  00000+0  11009-2 0  9992
2 66606  42.9987 174.2546 0001696 274.1989  85.8678 15.50589950  4830
STARLINK-35993          
1 66607U 25270V   25349.88503159  .00068151  00000+0  11568-2 0  9996
2 66607  42.9986 174.2577 0001582 270.0031  90.0648 15.50594365  4731
STARLINK-36036          
1 66608U 25270W   25349.88434619  .00064115  00000+0  10893-2 0  9997
2 66608  42.9987 174.2520 0001560 273.3219  86.7462 15.50590211  4676
STARLINK-36034          
1 66609U 25270X   25349.88400364  .00067181  00000+0  11407-2 0  9996
2 66609  42.9984 174.2494 0001556 272.2443  87.8239 15.50590248  4670
STARLINK-35680          
1 66610U 25270Y   25349.88366011  .00068394  00000+0  11607-2 0  9997
2 66610  42.9984 174.2461 0001612 280.5152  79.5526 15.50596666  4945
STARLINK-35583          
1 66611U 25270Z   25349.88331666  .00064934  00000+0  11029-2 0  9990
2 66611  42.9986 174.2435 0001712 269.9068  90.1596 15.50594696  4944
STARLINK-36039          
1 66612U 25270AA  25349.91668981  .00082507  00000+0  19633-2 0  9993
2 66612  42.9997 174.3174 0002010 269.7093 166.6598 15.40665084  4913
STARLINK-36037          
1 66613U 25270AB  25349.91668981  .00084744  00000+0  20158-2 0  9993
2 66613  42.9995 174.2574 0001639 273.0598 188.1828 15.40665862  4918
