CCSDS_OMM_VERS = 2.0
CREATION_DATE  = 
ORIGINATOR     = 

OBJECT_NAME    = STARLINK-36050
OBJECT_ID      = 2025-270Q
CENTER_NAME    = EARTH
REF_FRAME      = TEME
TIME_SYSTEM    = UTC
MEAN_ELEMENT_THEORY = SGP/SGP4

EPOCH          = 2025-12-15T22:00:01.999584
MEAN_MOTION    = 15.40659907
ECCENTRICITY   = .00017679
INCLINATION    = 42.9996
RA_OF_ASC_NODE = 174.3800
ARG_OF_PERICENTER = 264.1735
MEAN_ANOMALY   = 147.3104

EPHEMERIS_TYPE = 0
CLASSIFICATION_TYPE = U
NORAD_CAT_ID   = 66602
ELEMENT_SET_NO = 999
REV_AT_EPOCH   = 481
BSTAR          = .16272291E-2
MEAN_MOTION_DOT = .68189E-3
MEAN_MOTION_DDOT = 0

CCSDS_OMM_VERS = 2.0
CREATION_DATE  = 
ORIGINATOR     = 

OBJECT_NAME    = STARLINK-36048
OBJECT_ID      = 2025-270R
CENTER_NAME    = EARTH
REF_FRAME      = TEME
TIME_SYSTEM    = UTC
MEAN_ELEMENT_THEORY = SGP/SGP4

EPOCH          = 2025-12-15T22:00:01.999584
MEAN_MOTION    = 15.44642912
ECCENTRICITY   = .00011241
INCLINATION    = 42.9994
RA_OF_ASC_NODE = 174.1242
ARG_OF_PERICENTER = 286.1135
MEAN_ANOMALY   = 231.1016

EPHEMERIS_TYPE = 0
CLASSIFICATION_TYPE = U
NORAD_CAT_ID   = 66603
ELEMENT_SET_NO = 999
REV_AT_EPOCH   = 481
BSTAR          = -.47799163E-1
MEAN_MOTION_DOT = -.2029197E-1
MEAN_MOTION_DDOT = 0

CCSDS_OMM_VERS = 2.0
CREATION_DATE  = 
ORIGINATOR     = 

OBJECT_NAME    = STARLINK-35977
OBJECT_ID      = 2025-270S
CENTER_NAME    = EARTH
REF_FRAME      = TEME
TIME_SYSTEM    = UTC
MEAN_ELEMENT_THEORY = SGP/SGP4

EPOCH          = 2025-12-15T05:47:51.952128
MEAN_MOTION    = 15.50594552
ECCENTRICITY   = .00014478
INCLINATION    = 42.9989
RA_OF_ASC_NODE = 178.0309
ARG_OF_PERICENTER = 284.8784
MEAN_ANOMALY   = 75.1916

EPHEMERIS_TYPE = 0
CLASSIFICATION_TYPE = U
NORAD_CAT_ID   = 66604
ELEMENT_SET_NO = 999
REV_AT_EPOCH   = 473
BSTAR          = .84362823E-3
MEAN_MOTION_DOT = .49491E-3
MEAN_MOTION_DDOT = 0

CCSDS_OMM_VERS = 2.0
CREATION_DATE  = 
ORIGINATOR     = 

OBJECT_NAME    = STARLINK-36052
OBJECT_ID      = 2025-270T
CENTER_NAME    = EARTH
REF_FRAME      = TEME
TIME_SYSTEM    = UTC
MEAN_ELEMENT_THEORY = SGP/SGP4

EPOCH          = 2025-12-15T21:14:56.294592
MEAN_MOTION    = 15.50609370
ECCENTRICITY   = .00021568
INCLINATION    = 42.9952
RA_OF_ASC_NODE = 174.2621
ARG_OF_PERICENTER = 258.8815
MEAN_ANOMALY   = 101.1803

EPHEMERIS_TYPE = 0
CLASSIFICATION_TYPE = U
NORAD_CAT_ID   = 66605
ELEMENT_SET_NO = 999
REV_AT_EPOCH   = 483
BSTAR          = .10205444E-2
MEAN_MOTION_DOT = .60057E-3
MEAN_MOTION_DDOT = 0

CCSDS_OMM_VERS = 2.0
CREATION_DATE  = 
ORIGINATOR     = 

OBJECT_NAME    = STARLINK-36063
OBJECT_ID      = 2025-270U
CENTER_NAME    = EARTH
REF_FRAME      = TEME
TIME_SYSTEM    = UTC
MEAN_ELEMENT_THEORY = SGP/SGP4

EPOCH          = 2025-12-15T21:13:57.114912
MEAN_MOTION    = 15.50589950
ECCENTRICITY   = .00016969
INCLINATION    = 42.9987
RA_OF_ASC_NODE = 174.2546
ARG_OF_PERICENTER = 274.1989
MEAN_ANOMALY   = 85.8678

EPHEMERIS_TYPE = 0
CLASSIFICATION_TYPE = U
NORAD_CAT_ID   = 66606
ELEMENT_SET_NO = 999
REV_AT_EPOCH   = 483
BSTAR          = .11009121E-2
MEAN_MOTION_DOT = .64806E-3
MEAN_MOTION_DDOT = 0

CCSDS_OMM_VERS = 2.0
CREATION_DATE  = 
ORIGINATOR     = 

OBJECT_NAME    = STARLINK-35993
OBJECT_ID      = 2025-270V
CENTER_NAME    = EARTH
REF_FRAME      = TEME
TIME_SYSTEM    = UTC
MEAN_ELEMENT_THEORY = SGP/SGP4

EPOCH          = 2025-12-15T21:14:26.729376
MEAN_MOTION    = 15.50594365
ECCENTRICITY   = .00015824
INCLINATION    = 42.9986
RA_OF_ASC_NODE = 174.2577
ARG_OF_PERICENTER = 270.0031
MEAN_ANOMALY   = 90.0648

EPHEMERIS_TYPE = 0
CLASSIFICATION_TYPE = U
NORAD_CAT_ID   = 66607
ELEMENT_SET_NO = 999
REV_AT_EPOCH   = 473
BSTAR          = .11567667E-2
MEAN_MOTION_DOT = .68151E-3
MEAN_MOTION_DDOT = 0

CCSDS_OMM_VERS = 2.0
CREATION_DATE  = 
ORIGINATOR     = 

OBJECT_NAME    = STARLINK-36036
OBJECT_ID      = 2025-270W
CENTER_NAME    = EARTH
REF_FRAME      = TEME
TIME_SYSTEM    = UTC
MEAN_ELEMENT_THEORY = SGP/SGP4

EPOCH          = 2025-12-15T21:13:27.510816
MEAN_MOTION    = 15.50590211
ECCENTRICITY   = .00015609
INCLINATION    = 42.9987
RA_OF_ASC_NODE = 174.2520
ARG_OF_PERICENTER = 273.3219
MEAN_ANOMALY   = 86.7462

EPHEMERIS_TYPE = 0
CLASSIFICATION_TYPE = U
NORAD_CAT_ID   = 66608
ELEMENT_SET_NO = 999
REV_AT_EPOCH   = 467
BSTAR          = .10893309E-2
MEAN_MOTION_DOT = .64115E-3
MEAN_MOTION_DDOT = 0

CCSDS_OMM_VERS = 2.0
CREATION_DATE  = 
ORIGINATOR     = 

OBJECT_NAME    = STARLINK-36034
OBJECT_ID      = 2025-270X
CENTER_NAME    = EARTH
REF_FRAME      = TEME
TIME_SYSTEM    = UTC
MEAN_ELEMENT_THEORY = SGP/SGP4

EPOCH          = 2025-12-15T21:12:57.914496
MEAN_MOTION    = 15.50590248
ECCENTRICITY   = .00015567
INCLINATION    = 42.9984
RA_OF_ASC_NODE = 174.2494
ARG_OF_PERICENTER = 272.2443
MEAN_ANOMALY   = 87.8239

EPHEMERIS_TYPE = 0
CLASSIFICATION_TYPE = U
NORAD_CAT_ID   = 66609
ELEMENT_SET_NO = 999
REV_AT_EPOCH   = 467
BSTAR          = .1140699E-2
MEAN_MOTION_DOT = .67181E-3
MEAN_MOTION_DDOT = 0

CCSDS_OMM_VERS = 2.0
CREATION_DATE  = 
ORIGINATOR     = 

OBJECT_NAME    = STARLINK-35680
OBJECT_ID      = 2025-270Y
CENTER_NAME    = EARTH
REF_FRAME      = TEME
TIME_SYSTEM    = UTC
MEAN_ELEMENT_THEORY = SGP/SGP4

EPOCH          = 2025-12-15T21:12:28.233504
MEAN_MOTION    = 15.50596666
ECCENTRICITY   = .00016123
INCLINATION    = 42.9984
RA_OF_ASC_NODE = 174.2461
ARG_OF_PERICENTER = 280.5152
MEAN_ANOMALY   = 79.5526

EPHEMERIS_TYPE = 0
CLASSIFICATION_TYPE = U
NORAD_CAT_ID   = 66610
ELEMENT_SET_NO = 999
REV_AT_EPOCH   = 494
BSTAR          = .11607312E-2
MEAN_MOTION_DOT = .68394E-3
MEAN_MOTION_DDOT = 0

CCSDS_OMM_VERS = 2.0
CREATION_DATE  = 
ORIGINATOR     = 

OBJECT_NAME    = STARLINK-35583
OBJECT_ID      = 2025-270Z
CENTER_NAME    = EARTH
REF_FRAME      = TEME
TIME_SYSTEM    = UTC
MEAN_ELEMENT_THEORY = SGP/SGP4

EPOCH          = 2025-12-15T21:11:58.559424
MEAN_MOTION    = 15.50594696
ECCENTRICITY   = .00017123
INCLINATION    = 42.9986
RA_OF_ASC_NODE = 174.2435
ARG_OF_PERICENTER = 269.9068
MEAN_ANOMALY   = 90.1596

EPHEMERIS_TYPE = 0
CLASSIFICATION_TYPE = U
NORAD_CAT_ID   = 66611
ELEMENT_SET_NO = 999
REV_AT_EPOCH   = 494
BSTAR          = .11028736E-2
MEAN_MOTION_DOT = .64934E-3
MEAN_MOTION_DDOT = 0

CCSDS_OMM_VERS = 2.0
CREATION_DATE  = 
ORIGINATOR     = 

OBJECT_NAME    = STARLINK-36039
OBJECT_ID      = 2025-270AA
CENTER_NAME    = EARTH
REF_FRAME      = TEME
TIME_SYSTEM    = UTC
MEAN_ELEMENT_THEORY = SGP/SGP4

EPOCH          = 2025-12-15T22:00:01.999584
MEAN_MOTION    = 15.40665084
ECCENTRICITY   = .00020106
INCLINATION    = 42.9997
RA_OF_ASC_NODE = 174.3174
ARG_OF_PERICENTER = 269.7093
MEAN_ANOMALY   = 166.6598

EPHEMERIS_TYPE = 0
CLASSIFICATION_TYPE = U
NORAD_CAT_ID   = 66612
ELEMENT_SET_NO = 999
REV_AT_EPOCH   = 491
BSTAR          = .19633233E-2
MEAN_MOTION_DOT = .82507E-3
MEAN_MOTION_DDOT = 0

CCSDS_OMM_VERS = 2.0
CREATION_DATE  = 
ORIGINATOR     = 

OBJECT_NAME    = STARLINK-36037
OBJECT_ID      = 2025-270AB
CENTER_NAME    = EARTH
REF_FRAME      = TEME
TIME_SYSTEM    = UTC
MEAN_ELEMENT_THEORY = SGP/SGP4

EPOCH          = 2025-12-15T22:00:01.999584
MEAN_MOTION    = 15.40665862
ECCENTRICITY   = .00016393
INCLINATION    = 42.9995
RA_OF_ASC_NODE = 174.2574
ARG_OF_PERICENTER = 273.0598
MEAN_ANOMALY   = 188.1828

EPHEMERIS_TYPE = 0
CLASSIFICATION_TYPE = U
NORAD_CAT_ID   = 66613
ELEMENT_SET_NO = 999
REV_AT_EPOCH   = 491
BSTAR          = .20157597E-2
MEAN_MOTION_DOT = .84744E-3
MEAN_MOTION_DDOT = 0

